H1 CPF  1  DLR 2021 08 13 10  7252 technosat            
H2  1704205 6203    42829 2021 08 13 00 00 00 2021 08 20 00 00 00    60 1 1  0 0 0
H9
10 0 59444  14400.000000  0       -868154.826        263745.839      -6912778.733
10 0 59444  14460.000000  0       -706214.095        691105.684      -6901368.685
10 0 59444  14520.000000  0       -537591.987       1114122.516      -6860819.931
10 0 59444  14580.000000  0       -363040.760       1530967.109      -6791297.544
10 0 59444  14640.000000  0       -183353.700       1939841.775      -6693087.790
10 0 59444  14700.000000  0           638.405       2338988.108      -6566597.188
10 0 59444  14760.000000  0        188071.044       2726694.544      -6412351.071
10 0 59444  14820.000000  0        378050.003       3101303.780      -6230991.656
10 0 59444  14880.000000  0        569655.555       3461219.942      -6023275.536
10 0 59444  14940.000000  0        761946.796       3804915.408      -5790070.768
10 0 59444  15000.000000  0        953966.159       4130937.446      -5532353.590
10 0 59444  15060.000000  0       1144744.100       4437914.553      -5251204.634
10 0 59444  15120.000000  0       1333303.916       4724562.508      -4947804.694
10 0 59444  15180.000000  0       1518666.689       4989690.068      -4623429.982
10 0 59444  15240.000000  0       1699856.303       5232204.210      -4279446.911
10 0 59444  15300.000000  0       1875904.498       5451114.927      -3917306.502
10 0 59444  15360.000000  0       2045855.959       5645539.593      -3538538.404
10 0 59444  15420.000000  0       2208773.417       5814706.881      -3144744.525
10 0 59444  15480.000000  0       2363742.733       5957960.171      -2737592.279
10 0 59444  15540.000000  0       2509877.929       6074760.423      -2318807.484
10 0 59444  15600.000000  0       2646326.134       6164688.491      -1890166.937
10 0 59444  15660.000000  0       2772272.388       6227446.867      -1453490.704
10 0 59444  15720.000000  0       2886944.304       6262860.794      -1010634.159
10 0 59444  15780.000000  0       2989616.522       6270878.762       -563479.844
10 0 59444  15840.000000  0       3079614.953       6251572.397       -113929.198
10 0 59444  15900.000000  0       3156320.782       6205135.735        336105.808
10 0 59444  15960.000000  0       3219174.218       6131883.901        784711.059
10 0 59444  16020.000000  0       3267677.967       6032251.240       1229978.713
10 0 59444  16080.000000  0       3301400.378       5906788.853       1670015.617
10 0 59444  16140.000000  0       3319978.257       5756161.539       2102951.617
10 0 59444  16200.000000  0       3323119.332       5581144.209       2526947.763
10 0 59444  16260.000000  0       3310604.365       5382617.765       2940204.357
10 0 59444  16320.000000  0       3282288.909       5161564.430       3340968.797
10 0 59444  16380.000000  0       3238104.705       4919062.626       3727543.054
10 0 59444  16440.000000  0       3178060.706       4656281.569       4098290.954
10 0 59444  16500.000000  0       3102243.603       4374475.375       4451645.298
10 0 59444  16560.000000  0       3010817.878       4074976.664       4786114.496
10 0 59444  16620.000000  0       2904025.520       3759189.916       5100288.635
10 0 59444  16680.000000  0       2782185.451       3428584.678       5392845.225
10 0 59444  16740.000000  0       2645692.556       3084688.488       5662554.530
10 0 59444  16800.000000  0       2495016.413       2729079.696       5908284.470
10 0 59444  16860.000000  0       2330699.634       2363380.110       6129005.229
10 0 59444  16920.000000  0       2153355.797       1989247.412       6323793.346
10 0 59444  16980.000000  0       1963667.046       1608367.524       6491835.278
10 0 59444  17040.000000  0       1762381.372       1222446.957       6632430.481
10 0 59444  17100.000000  0       1550309.573        833205.170       6744994.022
10 0 59444  17160.000000  0       1328321.946        442367.011       6829058.712
10 0 59444  17220.000000  0       1097344.720         51655.211       6884276.893
10 0 59444  17280.000000  0        858356.184       -337217.160       6910421.812
10 0 59444  17340.000000  0        612382.541       -722554.199       6907388.412
10 0 59444  17400.000000  0        360493.527      -1102684.461       6875193.632
10 0 59444  17460.000000  0        103797.765      -1475968.122       6813976.281
10 0 59444  17520.000000  0       -156562.061      -1840803.973       6723996.420
10 0 59444  17580.000000  0       -419414.261      -2195636.224       6605634.279
10 0 59444  17640.000000  0       -683563.347      -2538961.089       6459388.675
10 0 59444  17700.000000  0       -947795.332      -2869333.068       6285874.950
10 0 59444  17760.000000  0      -1210883.136      -3185370.945       6085822.544
10 0 59444  17820.000000  0      -1471592.178      -3485763.572       5860072.205
10 0 59444  17880.000000  0      -1728686.107      -3769275.341       5609572.715
10 0 59444  17940.000000  0      -1980932.627      -4034751.365       5335377.192
10 0 59444  18000.000000  0      -2227109.411      -4281122.340       5038638.941
10 0 59444  18060.000000  0      -2466010.057      -4507409.030       4720606.804
10 0 59444  18120.000000  0      -2696450.028      -4712726.309       4382620.089
10 0 59444  18180.000000  0      -2917272.534      -4896286.830       4026103.087
10 0 59444  18240.000000  0      -3127354.343      -5057404.225       3652559.144
10 0 59444  18300.000000  0      -3325611.455      -5195495.785       3263564.395
10 0 59444  18360.000000  0      -3511004.640      -5310084.711       2860761.214
10 0 59444  18420.000000  0      -3682544.860      -5400801.908       2445851.326
10 0 59444  18480.000000  0      -3839298.513      -5467387.259       2020588.614
10 0 59444  18540.000000  0      -3980392.452      -5509690.385       1586771.651
10 0 59444  18600.000000  0      -4105018.754      -5527670.875       1146236.001
10 0 59444  18660.000000  0      -4212439.190      -5521397.976        700846.344
10 0 59444  18720.000000  0      -4301989.405      -5491049.792        252488.455
10 0 59444  18780.000000  0      -4373082.775      -5436911.952       -196938.959
10 0 59444  18840.000000  0      -4425213.884      -5359375.759       -645532.520
10 0 59444  18900.000000  0      -4457961.600      -5258935.801      -1091392.468
10 0 59444  18960.000000  0      -4470991.745      -5136187.050      -1532630.930
10 0 59444  19020.000000  0      -4464059.326      -4991821.478      -1967380.108
10 0 59444  19080.000000  0      -4437010.340      -4826624.216      -2393800.361
10 0 59444  19140.000000  0      -4389783.120      -4641469.277      -2810088.121
10 0 59444  19200.000000  0      -4322409.226      -4437314.905      -3214483.605
10 0 59444  19260.000000  0      -4235013.885      -4215198.550      -3605278.316
10 0 59444  19320.000000  0      -4127815.983      -3976231.517      -3980822.255
10 0 59444  19380.000000  0      -4001127.612      -3721593.335      -4339530.866
10 0 59444  19440.000000  0      -3855353.193      -3452525.823      -4679891.677
10 0 59444  19500.000000  0      -3690988.121      -3170326.922      -5000470.581
10 0 59444  19560.000000  0      -3508617.000      -2876344.326      -5299917.723
10 0 59444  19620.000000  0      -3308911.462      -2571968.969      -5576972.992
10 0 59444  19680.000000  0      -3092627.612      -2258628.404      -5830471.132
10 0 59444  19740.000000  0      -2860603.095      -1937780.059      -6059346.457
10 0 59444  19800.000000  0      -2613753.735      -1610904.412      -6262637.149
10 0 59444  19860.000000  0      -2353069.819      -1279498.148      -6439489.056
10 0 59444  19920.000000  0      -2079612.045       -945067.311      -6589159.037
10 0 59444  19980.000000  0      -1794507.159       -609120.501      -6711017.828
10 0 59444  20040.000000  0      -1498943.332       -273162.149      -6804552.431
10 0 59444  20100.000000  0      -1194165.299         61314.085      -6869368.101
10 0 59444  20160.000000  0       -881469.191        392831.827      -6905189.971
10 0 59444  20220.000000  0       -562197.077        719938.433      -6911864.200
10 0 59444  20280.000000  0       -237731.292       1041211.307      -6889358.567
10 0 59444  20340.000000  0         90511.388       1355263.927      -6837762.617
10 0 59444  20400.000000  0        421085.755       1660751.729      -6757287.558
10 0 59444  20460.000000  0        752524.526       1956377.930      -6648265.640
10 0 59444  20520.000000  0       1083344.861       2240899.029      -6511148.859
10 0 59444  20580.000000  0       1412054.876       2513130.019      -6346507.268
10 0 59444  20640.000000  0       1737160.300       2771949.434      -6155026.926
10 0 59444  20700.000000  0       2057171.300       3016304.076      -5937507.231
10 0 59444  20760.000000  0       2370609.286       3245213.329      -5694857.825
10 0 59444  20820.000000  0       2676013.730       3457773.204      -5428095.099
10 0 59444  20880.000000  0       2971949.009       3653160.115      -5138338.260
10 0 59444  20940.000000  0       3257011.276       3830634.277      -4826804.907
10 0 59444  21000.000000  0       3529835.243       3989542.708      -4494806.136
10 0 59444  21060.000000  0       3789100.871       4129321.831      -4143741.219
10 0 59444  21120.000000  0       4033539.924       4249499.665      -3775091.870
10 0 59444  21180.000000  0       4261942.401       4349697.577      -3390416.063
10 0 59444  21240.000000  0       4473162.679       4429631.573      -2991341.445
10 0 59444  21300.000000  0       4666125.385       4489113.101      -2579558.428
10 0 59444  21360.000000  0       4839831.018       4528049.424      -2156813.039
10 0 59444  21420.000000  0       4993361.332       4546443.553      -1724899.394
10 0 59444  21480.000000  0       5125884.290       4544393.627      -1285651.848
10 0 59444  21540.000000  0       5236658.555       4522091.838       -840936.996
99
